{"type":"Topology","objects":{"collection":{"type":"GeometryCollection","geometries":[{"type":"Polygon","arcs":[[0]],"id":"way/26210236","properties":{"abbr":"DTRIK","addr:city":"Blacksburg","addr:housenumber":"285","addr:postcode":"24061","addr:state":"VA","addr:street":"Ag Quad Lane","building":"university","building:cladding":"concrete","building:levels":"2","building:number":"189","height":"11.57","name":"Dietrick Hall","operator":"Virginia Tech","website":"https://www.vt.edu/about/locations/buildings/dietrick-hall.html","id":"way/26210236"}},{"type":"Polygon","arcs":[[1]],"id":"way/26210244","properties":{"abbr":"DAV","addr:city":"Blacksburg","addr:housenumber":"1040","addr:postcode":"24061","addr:state":"VA","addr:street":"Drillfield Drive","bburg:dataset":"rcl","building":"university","building:cladding":"stone","building:levels":"4","building:number":"156","name":"Davidson Hall","operator":"Virginia Tech","website":"http://www.vt.edu/about/buildings/davidson-hall.html","id":"way/26210244"}},{"type":"Polygon","arcs":[[2]],"id":"way/32709325","properties":{"addr:city":"Blacksburg","addr:housenumber":"570","addr:postcode":"24061","addr:state":"VA","addr:street":"Washington Street Southwest","building":"dormitory","height":"25.82","name":"Hoge Hall","operator":"Virginia Tech","website":"https://housing.vt.edu/experience/YourResidenceHall/HallListing/hoge.html","id":"way/32709325"}},{"type":"Polygon","arcs":[[3]],"id":"way/32709465","properties":{"abbr":"GLCDB","addr:city":"Blacksburg","addr:housenumber":"155","addr:postcode":"24061","addr:state":"VA","addr:street":"Otey Street","building":"university","building:cladding":"brick","building:levels":"4","building:number":"251","name":"Graduate Life Center","official_name":"Graduate Life Center at Donaldson Brown","operator":"Virginia Tech","website":"https://www.vt.edu/about/locations/buildings/graduate-life-center.html","id":"way/32709465"}},{"type":"Polygon","arcs":[[4]],"id":"way/32709473","properties":{"addr:city":"Blacksburg","addr:housenumber":"115","addr:postcode":"24061","addr:state":"VA","addr:street":"Kent Street","building":"university","name":"University Bookstore","opening_hours":"Mo-Th 09:00-18:00; Fr 09:00-17:00; Sa,Su 10:00-17:00","shop":"books","toilets:wheelchair":"no","wheelchair":"no","id":"way/32709473"}},{"type":"Polygon","arcs":[[5]],"id":"way/32937985","properties":{"addr:city":"Blacksburg","addr:housenumber":"290","addr:postcode":"24061","addr:state":"VA","addr:street":"College Avenue","building":"university","building:levels":"3","name":"Squires Student Center","operator":"Virginia Tech","id":"way/32937985"}},{"type":"Polygon","arcs":[[6]],"id":"way/32953605","properties":{"addr:city":"Blacksburg","addr:housenumber":"170","addr:postcode":"24061","addr:state":"VA","addr:street":"Drillfield Drive","building":"university","name":"Price Hall","operator":"Virginia Tech","website":"https://www.vt.edu/about/locations/buildings/price-hall.html","id":"way/32953605"}},{"type":"Polygon","arcs":[[7]],"id":"way/32953606","properties":{"addr:city":"Blacksburg","addr:housenumber":"210","addr:postcode":"24061","addr:state":"VA","addr:street":"Drillfield Drive","building":"university","height":"11.61","name":"Sandy Hall","operator":"Virginia Tech","website":"https://www.vt.edu/about/locations/buildings/sandy-hall.html","id":"way/32953606"}},{"type":"Polygon","arcs":[[8]],"id":"way/32954439","properties":{"abbr":"CAM","building":"dormitory","building:cladding":"stone","building:levels":"4","building:number":"36","height":"14.56","layer":"1","name":"Campbell Hall","operator":"Virginia Tech","website":"http://www.vt.edu/about/buildings/campbell-hall.html","id":"way/32954439"}},{"type":"Polygon","arcs":[[9]],"id":"way/32954440","properties":{"addr:city":"Blacksburg","addr:housenumber":"370","addr:postcode":"24061","addr:state":"VA","addr:street":"Drillfield Drive","bburg:dataset":"buildings","building":"university","height":"18.78","name":"War Memorial Hall","operator":"Virginia Tech","website":"https://www.vt.edu/about/locations/buildings/war-memorial-hall.html","id":"way/32954440"}},{"type":"Polygon","arcs":[[10,11]],"id":"way/32955264","properties":{"addr:city":"Blacksburg","addr:housenumber":"490","addr:postcode":"24061","addr:state":"VA","addr:street":"West Campus Drive","building":"university","name":"Saunders Hall","operator":"Virginia Tech","website":"https://www.vt.edu/about/locations/buildings/saunders-hall.html","id":"way/32955264"}},{"type":"Polygon","arcs":[[12,13]],"id":"way/32963472","properties":{"addr:city":"Blacksburg","addr:housename":"Burruss Hall","addr:housenumber":"800","addr:postcode":"24061","addr:state":"VA","addr:street":"Drillfield Drive","building":"university","building:levels":"4","height":"13.4","name":"Burruss Hall","old_name":"Teaching and Administration Building","website":"http://www.vt.edu/about/buildings/burruss-hall.html","id":"way/32963472"}},{"type":"Polygon","arcs":[[14]],"id":"way/33533412","properties":{"addr:city":"Blacksburg","addr:housenumber":"200","addr:postcode":"24061","addr:state":"VA","addr:street":"Kent Street","bburg:dataset":"buildings","building":"dormitory","building:levels":"4","name":"Newman Hall","operator":"Virginia Tech","url:info":"http://www.housing.vt.edu/halls/newman.php","website":"https://housing.vt.edu/experience/YourResidenceHall/HallListing/Newman.html","id":"way/33533412"}},{"type":"Polygon","arcs":[[15,16]],"id":"way/33744592","properties":{"addr:housenumber":"560","addr:street":"Drillfield Drive","building":"university","operator":"Virginia Tech","id":"way/33744592"}},{"type":"Polygon","arcs":[[17,-17]],"id":"way/33744593","properties":{"bridge":"yes","building":"university","building:levels":"2","building:min_level":"1","layer":"1","name":"Torgersen Bridge","operator":"Virginia Tech","id":"way/33744593"}},{"type":"Polygon","arcs":[[18,19,20,21]],"id":"way/43082478","properties":{"abbr":"DER","addr:city":"Blacksburg","addr:housenumber":"926","addr:postcode":"24061","addr:state":"VA","addr:street":"West Campus Drive","building":"university","building:cladding":"brick","building:levels":"6","building:number":"155","name":"Derring Hall","operator":"Virginia Tech","website":"http://www.vt.edu/about/buildings/derring-hall.html","id":"way/43082478"}},{"type":"Polygon","arcs":[[22]],"id":"way/43082481","properties":{"addr:city":"Blacksburg","addr:housenumber":"225","addr:postcode":"24061","addr:state":"VA","addr:street":"Stanger Street","building":"university","height":"23.9","name":"McBryde Hall","operator":"Virginia Tech","id":"way/43082481"}},{"type":"Polygon","arcs":[[23,24,25,26]],"id":"way/43310773","properties":{"addr:city":"Blacksburg","addr:housenumber":"155","addr:postcode":"24061","addr:state":"VA","addr:street":"Ag Quad Lane","building":"university","height":"19.91","name":"Seitz Hall","operator":"Virginia Tech","website":"https://www.vt.edu/about/locations/buildings/seitz-hall.html","id":"way/43310773"}},{"type":"Polygon","arcs":[[27,28]],"id":"way/43313684","properties":{"addr:city":"Blacksburg","addr:housenumber":"900","addr:postcode":"24061","addr:state":"VA","addr:street":"West Campus Drive","building":"university","name":"Hahn Hall North","operator":"Virginia Tech","id":"way/43313684"}},{"type":"Polygon","arcs":[[-24,29,-11,30]],"id":"way/43526624","properties":{"abbr":"AGNEW","addr:city":"Blacksburg","addr:housenumber":"460","addr:postcode":"24061","addr:state":"VA","addr:street":"West Campus Drive","building":"university","building:cladding":"stone","building:levels":"3","building:number":"109","name":"Agnew Hall","operator":"Virginia Tech","website":"https://www.vt.edu/about/locations/buildings/agnew-hall.html","website:operator":"http://www.vt.edu/about/buildings/agnew-hall.html","id":"way/43526624"}},{"type":"Polygon","arcs":[[31]],"id":"way/43531945","properties":{"abbr":"BFH","addr:city":"Blacksburg","addr:housenumber":"1345","addr:postcode":"24061","addr:state":"VA","addr:street":"Perry Street","building":"university","building:cladding":"stone","building:levels":"4","building:number":"173","name":"Bishop-Favrao Hall","operator":"Virginia Tech","website":"https://www.vt.edu/about/locations/buildings/bishop-favrao_hall.html","id":"way/43531945"}},{"type":"Polygon","arcs":[[32]],"id":"way/54784069","properties":{"addr:city":"Blacksburg","addr:housenumber":"765","addr:postcode":"24061","addr:state":"VA","addr:street":"West Campus Drive","building":"university","name":"Wright House","operator":"Virginia Tech","id":"way/54784069"}},{"type":"Polygon","arcs":[[33,34]],"id":"way/54784074","properties":{"addr:city":"Blacksburg","addr:housenumber":"490","addr:postcode":"24061","addr:state":"VA","addr:street":"Old Turner Street","building":"university","height":"13.4","name":"Hancock Hall","operator":"Virginia Tech","id":"way/54784074"}},{"type":"Polygon","arcs":[[35,36]],"id":"way/55760103","properties":{"addr:city":"Blacksburg","addr:housenumber":"250","addr:postcode":"24061","addr:state":"VA","addr:street":"Drillfield Drive","building":"university","name":"Hutcheson Hall","operator":"Virginia Tech","website":"https://www.vt.edu/about/locations/buildings/hutcheson-hall.html","id":"way/55760103"}},{"type":"Polygon","arcs":[[37,-26,38,-36]],"id":"way/55760105","properties":{"addr:city":"Blacksburg","addr:housenumber":"185","addr:postcode":"24061","addr:state":"VA","addr:street":"Ag Quad Lane","building":"university","height":"20.41","layer":"1","name":"Smyth Hall","operator":"Virginia Tech","website":"https://www.vt.edu/about/locations/buildings/smyth-hall.html","id":"way/55760105"}},{"type":"Polygon","arcs":[[39]],"id":"way/60193821","properties":{"addr:city":"Blacksburg","addr:housenumber":"180","addr:postcode":"24061","addr:state":"VA","addr:street":"Kent Street","bburg:dataset":"buildings","building":"dormitory","height":"12.42","layer":"1","name":"Vawter Hall","operator":"Virginia Tech","website":"https://housing.vt.edu/experience/YourResidenceHall/HallListing/Vawter.html","id":"way/60193821"}},{"type":"Polygon","arcs":[[40]],"id":"way/60193832","properties":{"addr:city":"Blacksburg","addr:housenumber":"150","addr:postcode":"24061","addr:state":"VA","addr:street":"Kent Street","bburg:dataset":"buildings","building":"university","height":"15.09","name":"Owens Hall","operator":"Virginia Tech","id":"way/60193832"}},{"type":"Polygon","arcs":[[41]],"id":"way/60193835","properties":{"addr:city":"Blacksburg","addr:housenumber":"410","addr:postcode":"24061","addr:state":"VA","addr:street":"Washington Street","bburg:dataset":"buildings","building":"dormitory","name":"Miles Hall","operator":"Virginia Tech","website":"https://housing.vt.edu/experience/YourResidenceHall/HallListing/Miles.html","id":"way/60193835"}},{"type":"Polygon","arcs":[[42]],"id":"way/60193840","properties":{"addr:city":"Blacksburg","addr:housenumber":"530","addr:postcode":"24061","addr:state":"VA","addr:street":"Washington Street","bburg:dataset":"buildings","building":"dormitory","name":"O'Shaughnessy Hall","operator":"Virginia Tech","website":"https://housing.vt.edu/experience/YourResidenceHall/HallListing/oshag.html","id":"way/60193840"}},{"type":"Polygon","arcs":[[43]],"id":"way/60193854","properties":{"addr:city":"Blacksburg","addr:housenumber":"500","addr:postcode":"24061","addr:state":"VA","addr:street":"Washington Street","bburg:dataset":"buildings","building":"dormitory","name":"Johnson Hall","operator":"Virginia Tech","website":"https://housing.vt.edu/experience/YourResidenceHall/HallListing/Johnson.html","id":"way/60193854"}},{"type":"Polygon","arcs":[[44]],"id":"way/60193862","properties":{"addr:city":"Blacksburg","addr:housenumber":"240","addr:postcode":"24061","addr:state":"VA","addr:street":"Kent Street","bburg:dataset":"buildings","building":"dormitory","building:cladding":"stone","building:levels":"3","building:number":"26","layer":"1","name":"Whitehurst Hall","operator":"Virginia Tech","website":"https://housing.vt.edu/experience/YourResidenceHall/HallListing/whitehurst.html","id":"way/60193862"}},{"type":"Polygon","arcs":[[45,46]],"id":"way/60193950","properties":{"addr:city":"Blacksburg","addr:housenumber":"600","addr:postcode":"24061","addr:state":"VA","addr:street":"Washington Street","bburg:dataset":"buildings","building":"dormitory","height":"11.92","name":"Payne Hall","operator":"Virginia Tech","website":"https://housing.vt.edu/experience/YourResidenceHall/HallListing/Payne.html","id":"way/60193950"}},{"type":"Polygon","arcs":[[47]],"id":"way/60193951","properties":{"addr:city":"Blacksburg","addr:housenumber":"590","addr:postcode":"24061","addr:state":"VA","addr:street":"Washington Street","bburg:dataset":"buildings","building":"dormitory","layer":"1","name":"New Residence Hall East","operator":"Virginia Tech","website":"https://housing.vt.edu/experience/YourResidenceHall/HallListing/NewResidenceHallEast.html","id":"way/60193951"}},{"type":"Polygon","arcs":[[48]],"id":"way/60193952","properties":{"addr:city":"Blacksburg","addr:housenumber":"610","addr:postcode":"24061","addr:state":"VA","addr:street":"Washington Street","bburg:dataset":"buildings","building":"dormitory","layer":"1","name":"Peddrew-Yates Hall","operator":"Virginia Tech","website":"https://housing.vt.edu/experience/YourResidenceHall/HallListing/Peddrew-Yates.html","id":"way/60193952"}},{"type":"Polygon","arcs":[[49,50]],"id":"way/60193953","properties":{"addr:city":"Blacksburg","addr:housenumber":"600","addr:postcode":"24061","addr:state":"VA","addr:street":"Washington Street","bburg:dataset":"buildings","building":"dormitory","height":"11.92","name":"Payne Hall","operator":"Virginia Tech","website":"https://housing.vt.edu/experience/YourResidenceHall/HallListing/Payne.html","id":"way/60193953"}},{"type":"Polygon","arcs":[[-50,51,-47,52]],"id":"way/60193954","properties":{"addr:city":"Blacksburg","addr:housenumber":"600","addr:postcode":"24061","addr:state":"VA","addr:street":"Washington Street","bburg:dataset":"buildings","bridge":"yes","building":"dormitory","height":"11.92","layer":"1","name":"Payne Hall","operator":"Virginia Tech","website":"https://housing.vt.edu/experience/YourResidenceHall/HallListing/Payne.html","id":"way/60193954"}},{"type":"Polygon","arcs":[[53]],"id":"way/60193985","properties":{"addr:city":"Blacksburg","addr:housenumber":"890","addr:postcode":"24061","addr:state":"VA","addr:street":"Drillfield Drive","building":"college","height":"15.83","name":"Williams Hall","operator":"Virginia Tech","id":"way/60193985"}},{"type":"Polygon","arcs":[[54,55,-29,56]],"id":"way/60193988","properties":{"addr:city":"Blacksburg","addr:housenumber":"800","addr:postcode":"24061","addr:state":"VA","addr:street":"West Campus Drive","bburg:dataset":"buildings","building":"university","name":"Hahn Hall South","operator":"Virginia Tech","id":"way/60193988"}},{"type":"Polygon","arcs":[[57,58]],"id":"way/60193992","properties":{"addr:city":"Blacksburg","addr:housenumber":"495","addr:postcode":"24061","addr:state":"VA","addr:street":"Old Turner Street","bburg:dataset":"buildings","building":"university","layer":"1","name":"Norris Hall","operator":"Virginia Tech","id":"way/60193992"}},{"type":"Polygon","arcs":[[59,60]],"id":"way/60193994","properties":{"addr:city":"Blacksburg","addr:housenumber":"880","addr:postcode":"24061","addr:state":"VA","addr:street":"West Campus Drive","bburg:dataset":"buildings","building":"university","height":"17.18","name":"Pamplin Hall","name:abbreviation":"PAM","operator":"Virginia Tech","website":"https://www.vt.edu/about/locations/buildings/pamplin-hall.html","id":"way/60193994"}},{"type":"Polygon","arcs":[[61]],"id":"way/60193996","properties":{"addr:city":"Blacksburg","addr:housenumber":"750","addr:postcode":"24061","addr:state":"VA","addr:street":"Drillfield Drive","bburg:dataset":"buildings","building":"university","height":"16.36","name":"Patton Hall","operator":"Virginia Tech","website":"https://www.vt.edu/about/locations/buildings/patton-hall.html","id":"way/60193996"}},{"type":"Polygon","arcs":[[62,63,-61,64]],"id":"way/60194001","properties":{"addr:housenumber":"880","addr:street":"West Campus Drive","bburg:dataset":"buildings","bridge":"yes","building":"university","layer":"1","name":"Pamplin Hall","operator":"Virginia Tech","id":"way/60194001"}},{"type":"Polygon","arcs":[[65,-63,66,-55]],"id":"way/60194002","properties":{"addr:city":"Blacksburg","addr:housenumber":"850","addr:postcode":"24061","addr:state":"VA","addr:street":"West Campus Drive","bburg:dataset":"buildings","building":"university","name":"Robeson Hall","name:abbreviation":"ROB","operator":"Virginia Tech","website":"http://www.vt.edu/about/buildings/robeson-hall.html","id":"way/60194002"}},{"type":"Polygon","arcs":[[67,68]],"id":"way/60194004","properties":{"bburg:dataset":"buildings","building":"university","height":"9.75","name":"Johnston Student Center","operator":"Virginia Tech","id":"way/60194004"}},{"type":"Polygon","arcs":[[69]],"id":"way/60194005","properties":{"abbr":"CO","addr:city":"Blacksburg","addr:housenumber":"1325","addr:postcode":"24061","addr:state":"VA","addr:street":"Perry Street","bburg:dataset":"buildings","building":"university","building:cladding":"concrete","building:levels":"5","building:number":"172","height":"18.91","name":"Cowgill Hall","operator":"Virginia Tech","website":"https://www.vt.edu/about/locations/buildings/cowgill-hall.html","id":"way/60194005"}},{"type":"Polygon","arcs":[[-68,70,-13,71]],"id":"way/373491931","properties":{"addr:housename":"Burruss Hall","addr:street":"Drillfield Drive","building":"roof","building:levels":"4","height":"13.4","layer":"1","name":"Burruss Hall","old_name":"Teaching and Administration Building","website":"http://www.vt.edu/about/buildings/burruss-hall.html","id":"way/373491931"}},{"type":"Polygon","arcs":[[-19,72]],"id":"way/415392964","properties":{"building":"roof","layer":"1","id":"way/415392964"}},{"type":"Polygon","arcs":[[73,-21]],"id":"way/415392965","properties":{"building":"roof","layer":"1","id":"way/415392965"}},{"type":"Polygon","arcs":[[74,-34]],"id":"way/461103806","properties":{"addr:city":"Blacksburg","addr:housenumber":"460","addr:postcode":"24061","addr:state":"VA","addr:street":"Old Turner Street","building":"university","height":"11.9","name":"Randolph Hall","operator":"Virginia Tech","id":"way/461103806"}},{"type":"Polygon","arcs":[[-58,75]],"id":"way/742733438","properties":{"addr:city":"Blacksburg","addr:housenumber":"445","addr:postcode":"24061","addr:state":"VA","addr:street":"Old Turner Street","bburg:dataset":"buildings","building":"university","name":"Holden Hall","operator":"Virginia Tech","id":"way/742733438"}},{"type":"Polygon","arcs":[[76]],"id":"way/1091675333","properties":{"addr:city":"Blacksburg","addr:housenumber":"185","addr:postcode":"24061","addr:state":"VA","addr:street":"Kent Street","building":"dormitory","name":"Creativity and Innovation District Residence Hall","website":"https://www.vt.edu/about/locations/buildings/cid.html","id":"way/1091675333"}}]}},"arcs":[[[-80.4213332,37.2240974],[-80.4205513,37.2246425],[-80.4207826,37.2248479],[-80.4208019,37.2248345],[-80.4209336,37.2249545],[-80.4216679,37.2244439],[-80.4215947,37.2243772],[-80.4215336,37.2243215],[-80.4215576,37.2243048],[-80.4213332,37.2240974]],[[-80.4252135,37.2267562],[-80.4252044,37.2267466],[-80.4252157,37.2267375],[-80.4251308,37.2266702],[-80.4250757,37.2267143],[-80.4250838,37.2267207],[-80.4249749,37.2268079],[-80.4249633,37.2267987],[-80.4249465,37.2268121],[-80.4249522,37.2268166],[-80.4249318,37.226833],[-80.4249051,37.2268543],[-80.424899,37.2268495],[-80.4248775,37.2268667],[-80.4248809,37.2268694],[-80.4247198,37.2269984],[-80.4248083,37.2270685],[-80.424885,37.2270058],[-80.4249185,37.2270339],[-80.4248872,37.2270621],[-80.4251449,37.2272763],[-80.4252069,37.2272273],[-80.4252187,37.2272369],[-80.4253421,37.2273384],[-80.4254123,37.2273961],[-80.4254925,37.2273365],[-80.4255698,37.2272679],[-80.4255944,37.2272229],[-80.4256065,37.2271855],[-80.4256091,37.2271353],[-80.4255823,37.2270584],[-80.4255179,37.2269997],[-80.4253369,37.2271545],[-80.42507,37.2269346],[-80.4251693,37.2268491],[-80.4251344,37.2268203],[-80.4252135,37.2267562]],[[-80.4186329,37.224088],[-80.4185822,37.2241228],[-80.4185388,37.2241525],[-80.4187023,37.2243036],[-80.4182278,37.2246291],[-80.4180551,37.2244696],[-80.4180098,37.2245007],[-80.4179456,37.2245447],[-80.4181245,37.2247102],[-80.4180431,37.224766],[-80.4181268,37.2248435],[-80.4181944,37.2247971],[-80.4182462,37.224845],[-80.4183363,37.2247833],[-80.4183768,37.2247556],[-80.4183259,37.2247085],[-80.4187726,37.2244025],[-80.4188215,37.2244478],[-80.4189118,37.2243859],[-80.4189552,37.2243562],[-80.4189045,37.2243094],[-80.4189643,37.2242684],[-80.4188796,37.2241901],[-80.4188014,37.2242438],[-80.4186329,37.224088]],[[-80.4170482,37.2280543],[-80.4171301,37.2281396],[-80.4171786,37.2281104],[-80.4173408,37.2282913],[-80.4173005,37.2283175],[-80.4173548,37.2283763],[-80.41742,37.2284467],[-80.4174612,37.2284214],[-80.417589,37.2285589],[-80.4176308,37.2285365],[-80.4176801,37.228594],[-80.4176002,37.2286411],[-80.4176114,37.2286516],[-80.417478,37.22879],[-80.4175666,37.2288419],[-80.4176763,37.2287215],[-80.4176861,37.2287323],[-80.4177556,37.2286927],[-80.4177795,37.2287173],[-80.4178258,37.2286904],[-80.417876,37.2286613],[-80.4178565,37.2286344],[-80.4179253,37.2285925],[-80.4179136,37.2285815],[-80.4180837,37.2285328],[-80.4180362,37.2284224],[-80.4179559,37.2284445],[-80.4179044,37.2283855],[-80.4179343,37.2283668],[-80.4177353,37.2281465],[-80.4177168,37.2281261],[-80.4177504,37.2281052],[-80.4175404,37.2278745],[-80.417509,37.2278929],[-80.4174455,37.2278234],[-80.4170482,37.2280543]],[[-80.418611,37.2284229],[-80.4187645,37.2283341],[-80.4187886,37.2281987],[-80.4187952,37.228162],[-80.4188042,37.2281114],[-80.4188479,37.2278658],[-80.4187223,37.2278484],[-80.418627,37.2279041],[-80.4184727,37.2279942],[-80.41845,37.2279698],[-80.4183994,37.2280018],[-80.4183927,37.2280431],[-80.4183204,37.2280857],[-80.4183295,37.2280978],[-80.4183194,37.2281046],[-80.4184179,37.2282115],[-80.418332,37.2282612],[-80.4183539,37.228289],[-80.4184398,37.228236],[-80.418611,37.2284229]],[[-80.4172976,37.2298986],[-80.4172892,37.2299489],[-80.4172735,37.2300525],[-80.4172699,37.2300811],[-80.4172826,37.2300811],[-80.4173218,37.23009],[-80.4174674,37.2302431],[-80.4176731,37.2301116],[-80.4177607,37.230204],[-80.4181094,37.2299882],[-80.4180242,37.2299023],[-80.4180123,37.2298889],[-80.4181154,37.2298287],[-80.4183501,37.2296814],[-80.418389,37.2297205],[-80.4184203,37.2296997],[-80.4184695,37.2296695],[-80.4184937,37.2296547],[-80.4185487,37.2297099],[-80.4186944,37.2296193],[-80.4188484,37.2295242],[-80.4188157,37.2294878],[-80.4188308,37.2294792],[-80.4186793,37.2293247],[-80.418774,37.2292683],[-80.4187121,37.2292068],[-80.418604,37.2292744],[-80.4184494,37.229118],[-80.4184978,37.2290894],[-80.4184334,37.2290213],[-80.4183996,37.2290416],[-80.4183715,37.2290131],[-80.4183125,37.2289557],[-80.4181976,37.2290241],[-80.4180875,37.229092],[-80.4179893,37.2291535],[-80.4179169,37.2292015],[-80.4179109,37.2292463],[-80.4179076,37.2292637],[-80.4178861,37.2292787],[-80.4177374,37.229368],[-80.4175852,37.2294616],[-80.4174333,37.2294443],[-80.417233,37.2295675],[-80.417129,37.229635],[-80.4171231,37.2297191],[-80.4172219,37.2298206],[-80.4172976,37.2298986]],[[-80.4244049,37.2257472],[-80.4243149,37.2255596],[-80.4241649,37.2256052],[-80.4241716,37.225619],[-80.42392,37.2256955],[-80.4239138,37.2256827],[-80.4237638,37.2257283],[-80.4238199,37.2258449],[-80.4238536,37.2259154],[-80.4239995,37.225871],[-80.423993,37.2258574],[-80.4241099,37.2258218],[-80.42425,37.2257792],[-80.4242563,37.2257924],[-80.4244049,37.2257472]],[[-80.4236608,37.2258146],[-80.4233868,37.2257178],[-80.4233328,37.2258148],[-80.4234503,37.2258562],[-80.4234472,37.2258617],[-80.4234915,37.2258774],[-80.4234949,37.2258712],[-80.4236072,37.2259109],[-80.4236375,37.2258563],[-80.4236608,37.2258146]],[[-80.4211619,37.225944],[-80.4213359,37.2261534],[-80.4215457,37.2264059],[-80.4216642,37.2263435],[-80.4216555,37.2263331],[-80.4217452,37.2262858],[-80.4218047,37.2262545],[-80.421784,37.2262297],[-80.4218772,37.2261805],[-80.4218814,37.2261856],[-80.4219187,37.2261659],[-80.4219207,37.2261683],[-80.4219615,37.2261468],[-80.4220166,37.2261178],[-80.4220129,37.2261134],[-80.4220453,37.2260963],[-80.4220424,37.2260928],[-80.4222596,37.2259784],[-80.4222624,37.2259817],[-80.4222916,37.2259662],[-80.4222949,37.2259702],[-80.4223404,37.2259462],[-80.4223911,37.2259195],[-80.4223859,37.2259132],[-80.4224252,37.2258925],[-80.422422,37.2258887],[-80.4225168,37.2258387],[-80.4224389,37.2257449],[-80.4223389,37.2257976],[-80.4223354,37.2257932],[-80.4223018,37.2258109],[-80.4222987,37.2258072],[-80.4222035,37.2258574],[-80.4222084,37.2258632],[-80.4221765,37.22588],[-80.4221781,37.2258819],[-80.4219318,37.2260117],[-80.4219276,37.2260066],[-80.4218259,37.2260602],[-80.4218307,37.226066],[-80.421697,37.2261364],[-80.4217224,37.2261669],[-80.4216642,37.2261976],[-80.4215849,37.2262393],[-80.4214539,37.2260817],[-80.4212854,37.2258789],[-80.4212113,37.2259179],[-80.4211619,37.225944]],[[-80.4206035,37.2257519],[-80.4204736,37.2258526],[-80.4202461,37.2260289],[-80.4200952,37.2261458],[-80.420148,37.226189],[-80.4199043,37.226378],[-80.4200765,37.2265188],[-80.4201244,37.2264817],[-80.4201348,37.2264902],[-80.4201754,37.2265234],[-80.4202586,37.226459],[-80.4203552,37.226538],[-80.4204525,37.2266176],[-80.4203649,37.2266855],[-80.4205355,37.2268251],[-80.4205866,37.2267855],[-80.4205913,37.2267893],[-80.4206375,37.2268271],[-80.4207922,37.2267073],[-80.4208045,37.2267174],[-80.4208727,37.2267732],[-80.4208124,37.2268199],[-80.4209089,37.2268989],[-80.4210186,37.2268139],[-80.4210298,37.2268231],[-80.4210626,37.2267977],[-80.4210698,37.2268036],[-80.4211096,37.2267727],[-80.421153,37.2267391],[-80.4211465,37.2267338],[-80.4211807,37.2267073],[-80.4211687,37.2266975],[-80.4212776,37.2266131],[-80.4211845,37.226537],[-80.4211615,37.2265549],[-80.421082,37.2264898],[-80.4212842,37.2263331],[-80.4210677,37.226156],[-80.4211276,37.2261096],[-80.4208067,37.2258471],[-80.4207622,37.2258817],[-80.4206035,37.2257519]],[[-80.4242457,37.2247894],[-80.4241447,37.2248224]],[[-80.4241447,37.2248224],[-80.4242909,37.2251101],[-80.424379,37.2250829],[-80.4243482,37.2250169],[-80.4245725,37.2249517],[-80.4244956,37.2247938],[-80.4242769,37.2248591],[-80.4242457,37.2247894]],[[-80.4242469,37.229071],[-80.4242314,37.2290585],[-80.4242208,37.2290497],[-80.4242022,37.2290343]],[[-80.4242022,37.2290343],[-80.4239495,37.2288171],[-80.4239846,37.2287913],[-80.4238217,37.2286498],[-80.423691,37.2285389],[-80.42345,37.2287167],[-80.423347,37.2287948],[-80.4231069,37.2289719],[-80.4231887,37.2290422],[-80.4231933,37.2290389],[-80.4232384,37.2290776],[-80.4233708,37.2291914],[-80.4234038,37.2291671],[-80.4236761,37.2294012],[-80.4236592,37.2294137],[-80.4236739,37.2294264],[-80.4236928,37.2294427],[-80.4237138,37.2294273],[-80.4238627,37.2295553],[-80.4238935,37.2295326],[-80.4238818,37.2295225],[-80.4240452,37.229402],[-80.4240634,37.2294176],[-80.4241092,37.2293838],[-80.4241626,37.2293444],[-80.4241477,37.2293317],[-80.4243206,37.2292042],[-80.4243357,37.2292171],[-80.4243794,37.2291849],[-80.4242469,37.229071]],[[-80.4179251,37.2264319],[-80.4178857,37.2264061],[-80.4178978,37.2263944],[-80.4178263,37.2263474],[-80.4178171,37.2263571],[-80.41776,37.2263194],[-80.4179715,37.2261143],[-80.4179915,37.2261278],[-80.4180502,37.2260711],[-80.4180368,37.2260621],[-80.4180908,37.2260102],[-80.4182659,37.2259602],[-80.418241,37.2259027],[-80.4182368,37.2258931],[-80.4182222,37.2258593],[-80.418209,37.2258627],[-80.418205,37.225851],[-80.4180842,37.2258838],[-80.4180881,37.2258944],[-80.4180085,37.2259156],[-80.4179304,37.2259919],[-80.4179223,37.2259871],[-80.4178899,37.2260187],[-80.41788,37.2260284],[-80.4178703,37.2260378],[-80.417864,37.226044],[-80.4178655,37.226045],[-80.4176562,37.2262488],[-80.4176471,37.2262428],[-80.4176144,37.2262748],[-80.4176049,37.2262841],[-80.4175905,37.2262981],[-80.4175611,37.2263268],[-80.4175668,37.2263307],[-80.4174792,37.2264143],[-80.4175131,37.2264367],[-80.4175384,37.2264535],[-80.4175451,37.2264579],[-80.4175862,37.2264852],[-80.4176695,37.2264049],[-80.4178384,37.2265158],[-80.4178821,37.2264735],[-80.4179251,37.2264319]],[[-80.4193397,37.2292786],[-80.4192107,37.2291473],[-80.4191573,37.2291796],[-80.4191305,37.2291497],[-80.419089,37.2291769],[-80.4191129,37.2292064],[-80.4190658,37.2292348],[-80.4191893,37.22937]],[[-80.4191893,37.22937],[-80.4192669,37.2293228],[-80.4193397,37.2292786]],[[-80.4191893,37.22937],[-80.4192648,37.2294488],[-80.4193986,37.2295886],[-80.4194928,37.2296869],[-80.4195737,37.2296378],[-80.4196432,37.2295955],[-80.4195477,37.2294958],[-80.4194123,37.2293544],[-80.4193397,37.2292786]],[[-80.4252048,37.2295749],[-80.4254832,37.2293624],[-80.4254785,37.2293376],[-80.4255224,37.2293044],[-80.425577,37.229263],[-80.4256163,37.2292609],[-80.4257994,37.2291211],[-80.4257994,37.2290946],[-80.4258325,37.2290696],[-80.4259035,37.2290158],[-80.4259272,37.2290236],[-80.4261251,37.2288726],[-80.4261033,37.2288529],[-80.4261311,37.2288306],[-80.4259967,37.228719],[-80.4260861,37.2286508]],[[-80.4260861,37.2286508],[-80.4259492,37.2285339],[-80.4255798,37.2288118],[-80.425574,37.2288429],[-80.4255518,37.228859],[-80.4255198,37.2288822],[-80.4254904,37.228879],[-80.4252441,37.2290798]],[[-80.4252441,37.2290798],[-80.4252646,37.2291375],[-80.4252443,37.2291567],[-80.4252267,37.2291484],[-80.4249774,37.2293377]],[[-80.4249774,37.2293377],[-80.4249935,37.2293568],[-80.4249777,37.2293671],[-80.4249628,37.2293768],[-80.4252048,37.2295749]],[[-80.4222169,37.2305576],[-80.4220931,37.2304512],[-80.4219145,37.2302722],[-80.4218728,37.2303421],[-80.4218493,37.2303445],[-80.4218488,37.2303109],[-80.421825,37.2303095],[-80.4217952,37.2303084],[-80.4217948,37.2303977],[-80.4217827,37.2304002],[-80.4217672,37.2304016],[-80.4216899,37.2302487],[-80.4216882,37.2302453],[-80.4216787,37.2302495],[-80.4216941,37.2302799],[-80.4216109,37.2303074],[-80.4215984,37.230282],[-80.4215741,37.2302876],[-80.4215787,37.2302988],[-80.4215018,37.2303246],[-80.4214421,37.2303833],[-80.4214233,37.2303768],[-80.4214101,37.2304006],[-80.4214498,37.2304214],[-80.421403,37.2304737],[-80.4213954,37.2304687],[-80.42139,37.2304744],[-80.421396,37.2304779],[-80.4214577,37.2305141],[-80.4214579,37.2305424],[-80.4214142,37.23055],[-80.4214124,37.2305885],[-80.4214399,37.2305884],[-80.4214854,37.2305873],[-80.4214842,37.2306104],[-80.4214397,37.230622],[-80.4213789,37.2306379],[-80.4216755,37.2309206],[-80.4217114,37.2308484],[-80.421742,37.2308515],[-80.4217227,37.2308983],[-80.4217536,37.2308975],[-80.4217837,37.2308988],[-80.4217887,37.230849],[-80.421807,37.2308569],[-80.421814,37.2308915],[-80.4218263,37.2309408],[-80.4221912,37.2306951],[-80.4221803,37.2306902],[-80.4221027,37.2306599],[-80.422103,37.2306552],[-80.4221035,37.2306456],[-80.422157,37.2306471],[-80.4221598,37.2306275],[-80.4221609,37.2306038],[-80.4221059,37.2306012],[-80.4220982,37.2305802],[-80.4222169,37.2305576]],[[-80.4240188,37.2248634],[-80.4239738,37.2247755]],[[-80.4239738,37.2247755],[-80.4239388,37.2247861],[-80.4237744,37.2244514],[-80.4233865,37.2245721],[-80.4232505,37.2246144],[-80.423405,37.2249465]],[[-80.423405,37.2249465],[-80.4234694,37.2250586]],[[-80.4234694,37.2250586],[-80.4236904,37.2249944],[-80.4236975,37.2250088],[-80.4237687,37.2249866],[-80.4238291,37.2249678],[-80.4238238,37.2249572],[-80.4240312,37.2248926],[-80.4240188,37.2248634]],[[-80.4259481,37.2281245],[-80.4259178,37.2281483],[-80.4259719,37.2281902],[-80.4259794,37.2281841],[-80.4259979,37.2281994],[-80.4260164,37.2282141],[-80.4259371,37.228275],[-80.4259763,37.2283046],[-80.4259705,37.2283095],[-80.4259652,37.228314],[-80.4259565,37.2283067],[-80.4258948,37.228354],[-80.4259753,37.2283786],[-80.4259924,37.2283665],[-80.4261654,37.2285088],[-80.4261936,37.2284861],[-80.4262965,37.2285702],[-80.4264745,37.228716],[-80.4264966,37.2286989],[-80.4265231,37.22872],[-80.4266562,37.2286164],[-80.4266432,37.2286051],[-80.4266292,37.2285952],[-80.4266537,37.2285768],[-80.4263873,37.2283575],[-80.4264063,37.2283425],[-80.4264361,37.2283202],[-80.4265609,37.2283287],[-80.4265622,37.2282894],[-80.4265786,37.2282893],[-80.4265449,37.2281989],[-80.4265607,37.2281953],[-80.4264913,37.2281068],[-80.4265037,37.2280984],[-80.4264041,37.2280304],[-80.4264142,37.2280199],[-80.4263319,37.2279935],[-80.4262802,37.2280724],[-80.4262675,37.2280627],[-80.4261672,37.2281406],[-80.4261288,37.2281088],[-80.4261082,37.2280914]],[[-80.4261082,37.2280914],[-80.4260764,37.2281161],[-80.4260189,37.2280686],[-80.4259481,37.2281245]],[[-80.4240188,37.2248634],[-80.4241447,37.2248224]],[[-80.4242457,37.2247894],[-80.4242918,37.2247744],[-80.4242831,37.2247546],[-80.4242552,37.224691],[-80.4239738,37.2247755]],[[-80.4256016,37.2301985],[-80.4257514,37.2300827],[-80.4256116,37.2299681],[-80.4254655,37.2298484],[-80.4253158,37.2299642],[-80.4256016,37.2301985]],[[-80.4262405,37.2267922],[-80.42632,37.2266899],[-80.4262264,37.2266434],[-80.4261515,37.2267399],[-80.4261801,37.2267541],[-80.4261746,37.226761],[-80.4261642,37.2267559],[-80.426054,37.2269024],[-80.4261757,37.2269637],[-80.4262042,37.2269272],[-80.4261811,37.2269158],[-80.4262673,37.2268055],[-80.4262405,37.2267922]],[[-80.4239899,37.230131],[-80.4242682,37.2303949],[-80.4240789,37.2305266]],[[-80.4240789,37.2305266],[-80.4242414,37.2306707],[-80.4242097,37.2306936],[-80.4242597,37.230738],[-80.424293,37.2307139],[-80.424298,37.2307184],[-80.4245054,37.2305688],[-80.4244557,37.2305247],[-80.42447,37.2305144],[-80.4244909,37.2304993],[-80.4245397,37.2305425],[-80.4247055,37.2304229],[-80.4245645,37.230298],[-80.4245909,37.2302807],[-80.4242829,37.2300156],[-80.4241036,37.2298581],[-80.4240641,37.2298232],[-80.4240421,37.2298089],[-80.4240255,37.2298016],[-80.4240077,37.2297964],[-80.4239892,37.2297933],[-80.4239703,37.2297923],[-80.4239608,37.2297927],[-80.4239329,37.2297971],[-80.4239153,37.2298026],[-80.4238913,37.2298147],[-80.423871,37.2298306],[-80.4238556,37.2298496],[-80.4238484,37.2298636],[-80.4238425,37.2298858],[-80.4238428,37.2299085],[-80.4238464,37.2299234],[-80.4238527,37.2299377],[-80.4238668,37.2299574],[-80.4238858,37.2299759],[-80.4240085,37.2300843],[-80.4240306,37.2301039],[-80.4240062,37.2301201],[-80.4239899,37.230131]],[[-80.4231947,37.2253963],[-80.4230808,37.225402]],[[-80.4230808,37.225402],[-80.4230856,37.2254631],[-80.4230514,37.2254648],[-80.4230642,37.2256269],[-80.4230955,37.2256253],[-80.4230989,37.2256683],[-80.4227584,37.2256854],[-80.4227515,37.2255987],[-80.422626,37.2256049],[-80.4226328,37.2256912],[-80.4226057,37.2256925],[-80.4226149,37.2258089],[-80.4229213,37.2257936],[-80.4231094,37.2257842],[-80.4231111,37.225805],[-80.4232411,37.2257985],[-80.4232335,37.2257015],[-80.4232188,37.2257022],[-80.4232114,37.2256087],[-80.4232008,37.2254746],[-80.4231947,37.2253963]],[[-80.4231947,37.2253963],[-80.4231949,37.2253693],[-80.4232268,37.2253686],[-80.4232116,37.2251553],[-80.4232267,37.2251503],[-80.4232212,37.2251399],[-80.423235,37.2251351],[-80.4232311,37.2251278],[-80.4232473,37.2251231],[-80.4234694,37.2250586]],[[-80.423405,37.2249465],[-80.4231962,37.2250093],[-80.423161,37.2250199],[-80.4231567,37.2250099],[-80.4230808,37.225031],[-80.4230679,37.2250027],[-80.4231504,37.2249784],[-80.4230733,37.2248111],[-80.4229882,37.2248361],[-80.4229952,37.2248514],[-80.4228546,37.2248929],[-80.4229149,37.2250237],[-80.422996,37.2249999],[-80.4230208,37.2250548],[-80.4230066,37.2250589],[-80.4230633,37.2251844],[-80.4230688,37.2252513],[-80.4230525,37.2252522],[-80.4230561,37.2252958],[-80.4230707,37.225295],[-80.4230808,37.225402]],[[-80.4179553,37.2272624],[-80.4179716,37.2272683],[-80.4180281,37.2271672],[-80.4176911,37.2270469],[-80.4176679,37.2270386],[-80.4176254,37.2270234],[-80.4177681,37.2267796],[-80.4177354,37.2267574],[-80.417716,37.2267442],[-80.4173768,37.2265135],[-80.4173333,37.2265546],[-80.4172863,37.2265989],[-80.4176018,37.22681],[-80.4175867,37.2268371],[-80.4175819,37.2268354],[-80.4174261,37.2271144],[-80.4174672,37.2271291],[-80.4175527,37.2271596],[-80.4175713,37.2271263],[-80.4176093,37.2271398],[-80.4176232,37.2271448],[-80.4178297,37.2272186],[-80.4177089,37.2274349],[-80.4177505,37.2274499],[-80.4177706,37.227457],[-80.4177866,37.2274627],[-80.417834,37.2274796],[-80.4179553,37.2272624]],[[-80.4190808,37.2262675],[-80.4190544,37.2262923],[-80.4190343,37.2263111],[-80.4189297,37.2262397],[-80.4189102,37.2262579],[-80.4189015,37.226252],[-80.4187573,37.2263872],[-80.4188684,37.226463],[-80.4188438,37.226486],[-80.4188191,37.2264692],[-80.4185958,37.2266786],[-80.4185908,37.2266752],[-80.4185632,37.2267011],[-80.4184856,37.2266482],[-80.4184632,37.2266692],[-80.4184564,37.2266645],[-80.4183165,37.2267957],[-80.4184324,37.2268747],[-80.418415,37.226891],[-80.4183821,37.2269219],[-80.4184146,37.2269441],[-80.4184199,37.2269391],[-80.4186822,37.227118],[-80.418676,37.2271238],[-80.418714,37.2271476],[-80.4187433,37.2271201],[-80.4187617,37.2271028],[-80.4188621,37.2271713],[-80.4188817,37.2271529],[-80.418892,37.2271599],[-80.4189096,37.2271433],[-80.4189283,37.2271561],[-80.4189748,37.2271125],[-80.4190211,37.227069],[-80.4190017,37.2270557],[-80.4190116,37.2270464],[-80.4190011,37.2270393],[-80.4190223,37.2270194],[-80.4189768,37.2269884],[-80.4189178,37.2269481],[-80.4190431,37.2268306],[-80.4190488,37.2268344],[-80.419077,37.226808],[-80.419073,37.2268053],[-80.4192005,37.2266858],[-80.4193023,37.2267552],[-80.4193217,37.2267371],[-80.4193319,37.226744],[-80.4193543,37.226723],[-80.4193671,37.2267317],[-80.4194095,37.2266919],[-80.4194478,37.226656],[-80.4194357,37.2266478],[-80.4194519,37.2266326],[-80.4194404,37.2266247],[-80.4194621,37.2266044],[-80.4193637,37.2265372],[-80.4193858,37.2265164],[-80.4194113,37.2264926],[-80.4193776,37.2264696],[-80.4193714,37.2264754],[-80.4191093,37.2262967],[-80.4191153,37.2262911],[-80.4190808,37.2262675]],[[-80.4172659,37.2252359],[-80.4173099,37.2251843],[-80.4171985,37.2251235],[-80.4171043,37.2252341],[-80.4170924,37.2252276],[-80.4170159,37.2253173],[-80.4170306,37.2253253],[-80.4168414,37.2255507],[-80.4167314,37.2256845],[-80.4167118,37.2256748],[-80.416637,37.2257655],[-80.4166563,37.2257751],[-80.4166105,37.2258309],[-80.4166875,37.2258695],[-80.4167237,37.2258893],[-80.4167316,37.2258801],[-80.4167426,37.225886],[-80.4167635,37.2258616],[-80.4167841,37.2258373],[-80.4168112,37.2258056],[-80.4167969,37.2257978],[-80.4169809,37.225582],[-80.4169888,37.2255863],[-80.4170436,37.225522],[-80.4170309,37.2255151],[-80.4171888,37.2253299],[-80.417213,37.2253016],[-80.4172232,37.2253072],[-80.4172515,37.225274],[-80.4172783,37.2252426],[-80.4172659,37.2252359]],[[-80.4183714,37.2252391],[-80.4183313,37.2252503],[-80.4182258,37.2250109],[-80.4181011,37.2250467],[-80.4181348,37.2251268],[-80.4181191,37.2251312],[-80.4181412,37.2251813],[-80.4181634,37.2252305],[-80.4181794,37.2252263],[-80.4181865,37.2252413],[-80.4181121,37.225263],[-80.4181704,37.2253939],[-80.4181798,37.2253915],[-80.4182438,37.2253732],[-80.4183317,37.2255717],[-80.4183152,37.2255757],[-80.41833,37.2256096],[-80.4183379,37.2256268],[-80.4183449,37.2256427],[-80.41836,37.2256764],[-80.4183746,37.2256717],[-80.4184105,37.2257521],[-80.4185358,37.2257161],[-80.4185072,37.2256519],[-80.4185233,37.2256473],[-80.4184651,37.2255158],[-80.4184498,37.2255201],[-80.4183737,37.2253503],[-80.4184156,37.2253379],[-80.4183982,37.2253017],[-80.4183714,37.2252391]],[[-80.4175322,37.2253352],[-80.4175406,37.2253273],[-80.4174953,37.2252965],[-80.4174489,37.225265],[-80.4174368,37.2252765],[-80.417427,37.2252698],[-80.4173418,37.2253501],[-80.4174053,37.2253932],[-80.4173922,37.2254055],[-80.4174668,37.2254561],[-80.4174804,37.2254433],[-80.4176338,37.2255475],[-80.4176244,37.2255563],[-80.4176566,37.2255782],[-80.4176741,37.2255901],[-80.4176872,37.225599],[-80.4177255,37.225625],[-80.4177351,37.2256159],[-80.4177793,37.2256459],[-80.417822,37.225675],[-80.4178887,37.2257203],[-80.4178768,37.2257315],[-80.4179489,37.2257805],[-80.4179616,37.2257686],[-80.4180261,37.2258124],[-80.4180618,37.2257788],[-80.4181119,37.2257316],[-80.4181009,37.2257242],[-80.4181133,37.2257125],[-80.4180805,37.2256903],[-80.4180698,37.225683],[-80.4180544,37.2256725],[-80.4180196,37.2256489],[-80.418009,37.225659],[-80.4175322,37.2253352]],[[-80.4165161,37.2259162],[-80.4165081,37.2259237],[-80.4164909,37.2259119],[-80.4164066,37.2259905],[-80.4164247,37.2260029],[-80.4163369,37.2260846],[-80.4164417,37.2261566],[-80.4164814,37.2261197],[-80.4164927,37.2261091],[-80.4165022,37.2261002],[-80.4165282,37.2260759],[-80.4165786,37.2261096],[-80.4165946,37.2261203],[-80.4166122,37.2261316],[-80.4168537,37.2262973],[-80.4168409,37.2263093],[-80.4169427,37.2263791],[-80.4169558,37.2263669],[-80.4171785,37.2265197],[-80.4172126,37.2264879],[-80.4172301,37.2264716],[-80.4172331,37.2264688],[-80.4172664,37.2264378],[-80.4172579,37.2264319],[-80.4172649,37.2264254],[-80.4172317,37.2264028],[-80.4172159,37.2263921],[-80.4172041,37.2263839],[-80.4171712,37.2263611],[-80.4171644,37.2263674],[-80.4167258,37.2260662],[-80.4166821,37.2260368],[-80.4166147,37.22599],[-80.4166185,37.2259865],[-80.4165161,37.2259162]],[[-80.420099,37.2258353],[-80.4201093,37.2258442],[-80.4201348,37.2258255],[-80.4201417,37.2258315],[-80.4202095,37.2257816],[-80.4202008,37.225774],[-80.4202921,37.2257069],[-80.4203742,37.2256465],[-80.4203814,37.2256528],[-80.4204472,37.2256044],[-80.4204392,37.2255974],[-80.4204657,37.2255779],[-80.4204297,37.2255466],[-80.4204417,37.2255377],[-80.4203826,37.2254863],[-80.4203712,37.2254947],[-80.4203363,37.2254643],[-80.4203014,37.22549],[-80.4202943,37.2254838],[-80.4202301,37.2255309],[-80.4202367,37.2255367],[-80.4201724,37.225584],[-80.4201644,37.225577],[-80.4201032,37.225622],[-80.420111,37.2256288],[-80.4199742,37.2257294],[-80.4199986,37.2257506]],[[-80.4199986,37.2257506],[-80.420046,37.2257906],[-80.420099,37.2258353]],[[-80.4193477,37.2253625],[-80.4193508,37.2253603],[-80.4193128,37.2253263],[-80.4192683,37.2253581],[-80.4192725,37.2253619],[-80.4188999,37.2256282],[-80.418942,37.2256658],[-80.4189287,37.2256753],[-80.418986,37.2257265],[-80.4189994,37.2257169],[-80.41904,37.2257532],[-80.4190598,37.2257391],[-80.4190818,37.2257588],[-80.4191057,37.2257802],[-80.419051,37.2258193],[-80.4192659,37.2260116],[-80.4193121,37.2259785],[-80.419323,37.2259883],[-80.4193395,37.2259765],[-80.4193548,37.2259903],[-80.4193693,37.2259799],[-80.4193834,37.2259699],[-80.4193681,37.2259562],[-80.4193891,37.2259412],[-80.419375,37.2259286],[-80.419417,37.2258986],[-80.4193863,37.2258711],[-80.419382,37.2258742],[-80.4191967,37.2257083],[-80.4191594,37.2257355],[-80.4191385,37.2257173],[-80.4191129,37.2256949],[-80.4194527,37.2254468],[-80.4194129,37.2254112],[-80.4194069,37.2254155],[-80.4193477,37.2253625]],[[-80.4199136,37.224946],[-80.4199032,37.2249536],[-80.4198649,37.2249204],[-80.4194522,37.2252246],[-80.4195931,37.225343],[-80.4199299,37.2250945],[-80.4199622,37.225109],[-80.4199577,37.2251153],[-80.4199693,37.2251205],[-80.4200029,37.2251356],[-80.4199831,37.2251637],[-80.4202676,37.2252913],[-80.4202955,37.2252516],[-80.4203133,37.2252595],[-80.4203249,37.2252443],[-80.4203419,37.2252472],[-80.4203544,37.2252203],[-80.4203472,37.2252163],[-80.4203571,37.2251971],[-80.4203397,37.2251893],[-80.420368,37.2251491],[-80.4200815,37.2250197],[-80.4200449,37.2250723],[-80.4200183,37.2250601],[-80.4199939,37.2250489],[-80.4200036,37.2250416],[-80.4199649,37.2250062],[-80.4199751,37.224998],[-80.4199581,37.2249793],[-80.4199592,37.2249615],[-80.4199393,37.224962],[-80.4199136,37.224946]],[[-80.4200226,37.2258914],[-80.41997,37.2258445],[-80.4199253,37.2258046]],[[-80.4199253,37.2258046],[-80.4199012,37.2257836],[-80.4197661,37.2258828],[-80.41976,37.2258774],[-80.4196942,37.2259258],[-80.4197021,37.2259326],[-80.4196382,37.2259795],[-80.4196311,37.2259733],[-80.4195674,37.2260201],[-80.4195735,37.2260255],[-80.4195384,37.2260513],[-80.4195746,37.2260828],[-80.4195618,37.2260923],[-80.4196212,37.2261439],[-80.4196335,37.2261348],[-80.4196456,37.2261452],[-80.4196569,37.2261552],[-80.4196714,37.2261678],[-80.4197039,37.2261439],[-80.4197108,37.2261498],[-80.4197747,37.2261028],[-80.4197675,37.2260965],[-80.4199408,37.2259691],[-80.4199472,37.2259747],[-80.4200116,37.2259274],[-80.4200046,37.2259213],[-80.420033,37.2259004],[-80.4200226,37.2258914]],[[-80.4200226,37.2258914],[-80.4200455,37.2258746],[-80.420099,37.2258353]],[[-80.4199986,37.2257506],[-80.4199253,37.2258046]],[[-80.4246783,37.2277663],[-80.4246822,37.2277696],[-80.4247427,37.2277239],[-80.4247204,37.227705],[-80.4247146,37.2277094],[-80.4245604,37.2275786],[-80.4244987,37.2276252],[-80.4245062,37.2276316],[-80.4243205,37.2277717],[-80.424311,37.2277637],[-80.4242542,37.2278065],[-80.4242072,37.227842],[-80.4242193,37.2278522],[-80.4240306,37.2279945],[-80.4240281,37.2279924],[-80.4239694,37.2280367],[-80.4241211,37.2281653],[-80.4241163,37.2281689],[-80.4241399,37.228189],[-80.4242002,37.2281435],[-80.4241954,37.2281395],[-80.424206,37.2281315],[-80.4242173,37.228123],[-80.4242198,37.2281251],[-80.4242742,37.2280842],[-80.4242077,37.2280278],[-80.4243714,37.2279049],[-80.4245424,37.2277754],[-80.424609,37.2278319],[-80.42466,37.2277934],[-80.4246517,37.2277863],[-80.4246651,37.2277762],[-80.4246783,37.2277663]],[[-80.4254469,37.2278144],[-80.4255761,37.2279182],[-80.4255021,37.2279794],[-80.4255435,37.228014]],[[-80.4255435,37.228014],[-80.4255555,37.228024],[-80.4255755,37.2280406],[-80.4255519,37.2280588],[-80.4256341,37.2281271],[-80.4258004,37.2279989],[-80.4259481,37.2281245]],[[-80.4261082,37.2280914],[-80.4261331,37.2280492],[-80.4261125,37.228032],[-80.4261356,37.2280142],[-80.425639,37.2275999],[-80.4256158,37.2276176],[-80.4255926,37.2275993],[-80.4255205,37.2276548],[-80.4255266,37.2276596],[-80.4255434,37.2276732],[-80.4254705,37.2277315],[-80.4255112,37.2277649],[-80.4254802,37.2277888],[-80.4254469,37.2278144]],[[-80.4227507,37.229991],[-80.4228877,37.2301239]],[[-80.4228877,37.2301239],[-80.422929,37.2300951],[-80.422937,37.2301028],[-80.4230172,37.2300502],[-80.4230744,37.2300117],[-80.4230651,37.2300029],[-80.4234145,37.2297678],[-80.4234255,37.2297782],[-80.4235104,37.2297211],[-80.4233895,37.2296062],[-80.4234301,37.2295789],[-80.423152,37.2293147],[-80.4230766,37.2293653],[-80.4230009,37.2294164],[-80.4232596,37.2296622],[-80.4229348,37.2298778],[-80.4229222,37.2298629],[-80.4228551,37.2299064],[-80.4227838,37.2299523],[-80.4227933,37.2299619],[-80.4227507,37.229991]],[[-80.424821,37.2283708],[-80.4248085,37.2283605],[-80.4247799,37.2283825],[-80.4244407,37.228644],[-80.4242571,37.2284917],[-80.4241796,37.2285514],[-80.4241193,37.2285979],[-80.4244134,37.2288419],[-80.4244395,37.2288225],[-80.4244734,37.2288528],[-80.42453,37.2289033],[-80.4244898,37.2289329],[-80.4245624,37.2289959],[-80.4245837,37.2289802],[-80.4246232,37.2290104],[-80.4251184,37.2286288],[-80.4250804,37.2285957],[-80.4251057,37.228577],[-80.425035,37.2285157],[-80.4249899,37.2285489],[-80.4249471,37.2285115],[-80.4249358,37.2285016],[-80.4249206,37.2284883],[-80.4249058,37.2284754],[-80.4249283,37.2284587],[-80.4249207,37.2284517]],[[-80.4249207,37.2284517],[-80.424873,37.228413],[-80.424821,37.2283708]],[[-80.4225554,37.2291329],[-80.4225053,37.2290798],[-80.4225129,37.2290752],[-80.4224935,37.2290546],[-80.4224757,37.2290357],[-80.4224684,37.2290401],[-80.4224192,37.2289879],[-80.4223786,37.2290124],[-80.4223707,37.2290041],[-80.4223152,37.2290375],[-80.4223243,37.2290472],[-80.4222829,37.2290722],[-80.4222902,37.2290798],[-80.422196,37.2291367],[-80.4221912,37.2291316],[-80.4221409,37.2291619],[-80.4220903,37.2291925],[-80.4220981,37.2292008],[-80.4219995,37.2292603],[-80.4219915,37.2292518],[-80.4219537,37.2292747],[-80.4219469,37.2292675],[-80.4218821,37.2293066],[-80.4218868,37.2293117],[-80.4218552,37.2293308],[-80.4219075,37.2293862],[-80.4219003,37.2293905],[-80.4219182,37.2294095],[-80.4219419,37.2294346],[-80.4219492,37.2294302],[-80.4219958,37.2294796],[-80.4220356,37.2294556],[-80.4220423,37.2294628],[-80.4220961,37.2294303],[-80.4220864,37.22942],[-80.422129,37.2293943],[-80.4221044,37.2293682],[-80.4222012,37.2293098],[-80.4222148,37.2293242],[-80.4222404,37.2293087],[-80.4222342,37.2293022],[-80.4222557,37.2292893],[-80.4223086,37.2292573],[-80.4223003,37.2292484],[-80.4223991,37.2291888],[-80.422424,37.2292152],[-80.4224656,37.2291901],[-80.4224705,37.2291953],[-80.4225208,37.2291649],[-80.4225141,37.2291578],[-80.4225554,37.2291329]],[[-80.425041,37.2283582],[-80.4249907,37.2283148],[-80.4249449,37.2282753]],[[-80.4249449,37.2282753],[-80.4249221,37.2282929],[-80.424821,37.2283708]],[[-80.4249207,37.2284517],[-80.425041,37.2283582]],[[-80.4254469,37.2278144],[-80.4254042,37.2278473],[-80.4252842,37.2277477],[-80.4252926,37.2277412],[-80.425259,37.2277132],[-80.4251806,37.2277717],[-80.425154,37.2277941],[-80.4251077,37.2278298],[-80.4252952,37.2279855],[-80.4249325,37.228265],[-80.4249449,37.2282753]],[[-80.425041,37.2283582],[-80.4250599,37.2283739],[-80.425114,37.2283323],[-80.4250965,37.2283178],[-80.4252971,37.2281632],[-80.4254236,37.2280657],[-80.4254491,37.2280868],[-80.4255435,37.228014]],[[-80.4242633,37.2290254],[-80.4242807,37.2290404],[-80.4243064,37.2290626]],[[-80.4243064,37.2290626],[-80.4245111,37.2292392],[-80.4246411,37.2293513],[-80.4248778,37.2295556],[-80.4249392,37.2295101],[-80.4248459,37.2294295],[-80.4248837,37.2294015],[-80.4247373,37.2292752],[-80.4244303,37.2290104],[-80.4244103,37.2290277],[-80.4243427,37.2289685],[-80.4242803,37.2290127],[-80.4242633,37.2290254]],[[-80.4246609,37.2302071],[-80.4251071,37.2298793],[-80.4249296,37.2297238],[-80.4248353,37.2296428],[-80.4246261,37.2297965],[-80.4246008,37.229815],[-80.4245819,37.229829],[-80.4243891,37.2299706],[-80.4246609,37.2302071]],[[-80.4242633,37.2290254],[-80.4242022,37.2290343]],[[-80.4242469,37.229071],[-80.4243064,37.2290626]],[[-80.4252048,37.2295749],[-80.4252303,37.2295952],[-80.4262034,37.2288453],[-80.4262206,37.2288543],[-80.4262813,37.228809],[-80.4260861,37.2286508]],[[-80.4252441,37.2290798],[-80.4249245,37.2293086],[-80.4249774,37.2293377]],[[-80.4239899,37.230131],[-80.4238725,37.2300193],[-80.4236427,37.2301716],[-80.4236328,37.2301621],[-80.4235716,37.2302027],[-80.4235161,37.2302395],[-80.4235321,37.2302549],[-80.4232713,37.2304279],[-80.4232465,37.2304443],[-80.4232438,37.2304417],[-80.4229749,37.23062],[-80.4229802,37.2306252],[-80.4229533,37.2306431],[-80.4228784,37.2306927],[-80.423007,37.2308167],[-80.423048,37.2307896],[-80.4231816,37.2309184],[-80.4231523,37.2309378],[-80.4231807,37.2309627],[-80.4232557,37.231035],[-80.4232213,37.2310578],[-80.4232935,37.2311273],[-80.4233955,37.2310597],[-80.4233763,37.2310412],[-80.423384,37.2310361],[-80.4234546,37.2311044],[-80.4235539,37.2310386],[-80.4234816,37.2309689],[-80.4236003,37.2308902],[-80.4235031,37.2307964],[-80.4234133,37.2307098],[-80.4233099,37.2306102],[-80.4235089,37.2304782],[-80.4237759,37.2307346],[-80.4239513,37.2306081],[-80.423966,37.2306211],[-80.4240623,37.2305516],[-80.4240538,37.2305441],[-80.4240789,37.2305266]],[[-80.4227507,37.229991],[-80.4226889,37.2299346],[-80.4223111,37.2301773],[-80.4223526,37.2302163],[-80.4222811,37.2302648],[-80.4222527,37.2302841],[-80.4220857,37.230133],[-80.4223339,37.2299707],[-80.4222326,37.2298759],[-80.4219771,37.2300436],[-80.4219688,37.2300492],[-80.4219623,37.230043],[-80.4218568,37.2301092],[-80.4219674,37.2302157],[-80.4219912,37.2302024],[-80.4221518,37.2303553],[-80.4221317,37.2303679],[-80.422309,37.2305334],[-80.4224532,37.2304314],[-80.4228877,37.2301239]],[[-80.4164734,37.2271505],[-80.4164093,37.2272104],[-80.4160928,37.2273945],[-80.4161287,37.2274321],[-80.4161119,37.2274456],[-80.4161276,37.2274625],[-80.416133,37.2274594],[-80.4161645,37.2274932],[-80.4161759,37.2274866],[-80.4161797,37.22749],[-80.4164666,37.227321],[-80.4165855,37.2274506],[-80.4162985,37.2276167],[-80.4163036,37.2276215],[-80.4162903,37.2276296],[-80.416306,37.2276474],[-80.4162572,37.2276756],[-80.4163258,37.2277523],[-80.4163331,37.2277483],[-80.4163318,37.2277458],[-80.4165494,37.227618],[-80.4165502,37.2276259],[-80.4165583,37.2276296],[-80.4166533,37.2277352],[-80.4166822,37.2277167],[-80.4167129,37.227746],[-80.416697,37.2277678],[-80.4166908,37.2277659],[-80.4166848,37.2277714],[-80.4166973,37.22778],[-80.4166818,37.2277954],[-80.4166731,37.2277897],[-80.4166232,37.2278487],[-80.4166319,37.227854],[-80.4166016,37.2278916],[-80.4166301,37.2279054],[-80.4166271,37.2279093],[-80.4166563,37.227924],[-80.4166253,37.2279568],[-80.4166936,37.2279948],[-80.416722,37.2279601],[-80.4167512,37.2279763],[-80.4167762,37.227947],[-80.4167973,37.2279613],[-80.4172601,37.227563],[-80.417245,37.2275451],[-80.4173216,37.2275018],[-80.4172833,37.2274633],[-80.4172989,37.2274554],[-80.4172505,37.2273997],[-80.417236,37.2274083],[-80.4172328,37.2274044],[-80.4171991,37.227424],[-80.4171934,37.2274173],[-80.4171024,37.2274716],[-80.4171081,37.2274788],[-80.4170864,37.2274909],[-80.4170656,37.2274693],[-80.4170644,37.2274438],[-80.416987,37.2273619],[-80.4170395,37.2273322],[-80.4170394,37.2273283],[-80.4170629,37.2273137],[-80.4171027,37.2272916],[-80.4171065,37.2272964],[-80.417115,37.2272923],[-80.4171131,37.2272904],[-80.4171535,37.2272668],[-80.4171442,37.227261],[-80.4171038,37.2272152],[-80.4171075,37.2272137],[-80.4171012,37.2272079],[-80.4170951,37.22721],[-80.4170848,37.2271901],[-80.4170825,37.2271926],[-80.4170169,37.2271144],[-80.4170102,37.2271169],[-80.4169977,37.2271059],[-80.4170037,37.2271029],[-80.416998,37.2270961],[-80.4169179,37.2271434],[-80.4169102,37.2271792],[-80.4168716,37.2272004],[-80.4168987,37.2272327],[-80.4168125,37.2272836],[-80.4168081,37.2272773],[-80.4167237,37.2273261],[-80.4167281,37.2273299],[-80.416698,37.2273515],[-80.4166092,37.2272521],[-80.4168207,37.227074],[-80.4168369,37.2270855],[-80.4168842,37.2270476],[-80.4168285,37.2269971],[-80.4168345,37.2269931],[-80.4168033,37.2269691],[-80.4167979,37.2269736],[-80.4167426,37.2269306],[-80.4165758,37.2270677],[-80.4165714,37.2270634],[-80.4164971,37.2271248],[-80.4164937,37.2271221],[-80.4164722,37.2271391],[-80.4164734,37.2271505]]],"bbox":[-80.4266562,37.224088,-80.4160928,37.2311273]}